postal_code,address,building_name,building_function,latitude,longitude
307591,"101 THOMSON ROAD, SINGAPORE 307591",UNITED SQUARE,Mixed Development,,
249724,"50 CUSCADEN ROAD, SINGAPORE 249724",HPL HOUSE,Office,,
48943,"137 MARKET STREET, SINGAPORE 048943",GRACE GLOBAL RAFFLES,Office,,
69532,"100 CECIL STREET, SINGAPORE 069532",THE GLOBE,Office,,
179433,"77 HIGH STREET, SINGAPORE 179433",HIGH STREET PLAZA,Office,,
98585,"1 HARBOURFRONT WALK, SINGAPORE 098585",VIVO CITY,Retail,,
409286,"810 GEYLANG ROAD, SINGAPORE 409286",CITY PLAZA,Retail,,
588177,"144 UPPER BUKIT TIMAH ROAD, SINGAPORE 588177",BEAUTY WORLD CENTRE,Retail,,
179369,"140 HILL STREET, SINGAPORE 179369",OLD HILL STREET POLICE STATION,Office,,
339946,"1500 BENDEMEER ROAD, SINGAPORE 339946",MINISTRY OF MANPOWER SERVICES CENTRE,Office,,
59764,"18 HAVELOCK ROAD, SINGAPORE 059764",MINISTRY OF MANPOWER BUILDING,Office,,
188553,"12 QUEEN STREET, SINGAPORE 188553",HOTEL ROYAL @ QUEENS,Hotel,,
168733,"50 TIONG BAHRU ROAD, SINGAPORE 168733",,Hotel,,
69535,"133 CECIL STREET, SINGAPORE 069535",KECK SENG TOWER,Office,,
39393,"1 RAFFLES LINK, SINGAPORE 039393",ONE RAFFLES LINK,Office,,
199555,"300 BEACH ROAD, SINGAPORE 199555",THE CONCOURSE,Office,,
48542,"1 ROBINSON ROAD, SINGAPORE 048542",AIA TOWER,Office,,
159963,"371 ALEXANDRA ROAD, SINGAPORE 159963",AIA ALEXANDRA,Office,,
117612,"20 HARBOUR DRIVE, SINGAPORE 117612",,Office,,
99253,"1 MARITIME SQUARE, SINGAPORE 099253",HARBOURFRONT CENTRE,Office,,
188537,"15 QUEEN STREET, SINGAPORE 188537",TAN CHONG TOWER,Office,,
329813,"432 BALESTIER ROAD, SINGAPORE 329813",PUBLIC MANSIONS,Mixed Development,,
189673,"1 BEACH ROAD, SINGAPORE 189673",RAFFLES HOTEL,Hotel,,
69540,"140 CECIL STREET, SINGAPORE 069540",PIL BUILDING,Office,,
59413,"133 NEW BRIDGE ROAD, SINGAPORE 059413",CHINATOWN POINT,Mixed Development,,
68898,"80 ROBINSON ROAD, SINGAPORE 068898",,Office,,
238841,"150 ORCHARD ROAD, SINGAPORE 238841",ORCHARD PLAZA,Retail,,
238697,"9 OXLEY RISE, SINGAPORE 238697",THE OXLEY,Office,,
439053,"90 GOODMAN ROAD, SINGAPORE 439053",GOODMAN ARTS CENTRE,Office,,
39803,"30 RAFFLES AVENUE, SINGAPORE 039803",SINGAPORE FLYER,Retail,,
68876,"35 ROBINSON ROAD, SINGAPORE 068876",SO SOFITEL SINGAPORE,Hotel,,
179434,"100 HIGH STREET, SINGAPORE 179434",THE TREASURY,Office,,
769098,"930 YISHUN AVENUE 2, SINGAPORE 769098",,Retail,,
169631,"401 HAVELOCK ROAD, SINGAPORE 169631",HOTEL MIRAMAR,Hotel,,
69542,"143 CECIL STREET, SINGAPORE 069542",GB BUILDING,Office,,
328836,"81 KIM KEAT ROAD, SINGAPORE 328836",NKF CENTRE,Office,,
238880,"501 ORCHARD ROAD, SINGAPORE 238880",WHEELOCK PLACE,Mixed Development,,
48621,"24 RAFFLES PLACE, SINGAPORE 048621",CLIFFORD CENTRE,Office,,
238895,"313 ORCHARD ROAD, SINGAPORE 238895",313 @ SOMERSET,Retail,,
48623,"50 RAFFLES PLACE, SINGAPORE 048623",SINGAPORE LAND TOWER,Office,,
529508,"1 TAMPINES CENTRAL 5, SINGAPORE 529508",CPF TAMPINES BUILDING,Office,,
608546,"21 JURONG GATEWAY ROAD, SINGAPORE 608546",CPF JURONG BUILDING,Office,,
579838,"3 BISHAN PLACE, SINGAPORE 579838",CPF BISHAN BUILDING,Office,,
69046,"20 MCCALLUM STREET, SINGAPORE 069046",TOKIO MARINE CENTRE,Office,,
48583,"1 RAFFLES QUAY, SINGAPORE 048583",,Office,,
179094,"1 NORTH BRIDGE ROAD, SINGAPORE 179094",HIGH STREET CENTRE,Office,,
207704,"145 SYED ALWI ROAD, SINGAPORE 207704",MUSTAFA CENTRE,Retail,,
229833,"75 BUKIT TIMAH ROAD, SINGAPORE 229833",BOON SIEW BUILDING,Office,,
609916,"25 INTERNATIONAL BUSINESS PARK, SINGAPORE 609916",GERMAN CENTRE,Office,,
68896,"77 ROBINSON ROAD, SINGAPORE 068896",ROBINSON 77,Office,,
159943,"307 ALEXANDRA ROAD, SINGAPORE 159943",MITSUBISHI ELECTRIC BUILDING,Office,,
238163,"96 SOMERSET ROAD, SINGAPORE 238163",,Hotel,,
228231,"40 SCOTTS ROAD, SINGAPORE 228231",ENVIRONMENT BUILDING,Office,,
89763,"200 CANTONMENT ROAD, SINGAPORE 089763",SOUTHPOINT,Office,,
238867,"333 ORCHARD ROAD, SINGAPORE 238867",MANDARIN ORCHARD SINGAPORE,Hotel,,
238875,"400 ORCHARD ROAD, SINGAPORE 238875",ORCHARD TOWERS,Mixed Development,,
188778,"600 NORTH BRIDGE ROAD, SINGAPORE 188778",PARKVIEW SQUARE,Office,,
48545,"14 ROBINSON ROAD, SINGAPORE 048545",FAR EAST FINANCE BUILDING,Office,,
579700,"200 BRADDELL ROAD, SINGAPORE 579700",BCA BRADDELL CAMPUS,Office,,
18971,"1 BAYFRONT AVENUE, SINGAPORE 018971",MARINA BAY SANDS,Mixed Development,,
429979,"1 BROOKE ROAD, SINGAPORE 429979",KATONG PLAZA,Retail,,
68807,"4 SHENTON WAY, SINGAPORE 068807",SGX CENTRE II,Office,,
68804,"2 SHENTON WAY, SINGAPORE 068804",SGX CENTRE I,Office,,
239924,"190 CLEMENCEAU AVENUE, SINGAPORE 239924",SINGAPORE SHOPPING CENTRE,Retail,,
238871,"390 ORCHARD ROAD, SINGAPORE 238871",PALAIS RENAISSANCE,Mixed Development,,
48580,"6 RAFFLES QUAY, SINGAPORE 048580",,Office,,
698928,"501 OLD CHOA CHU KANG ROAD, SINGAPORE 698928",,Office,,
329543,"6 IRRAWADDY ROAD, SINGAPORE 329543",IBIS SINGAPORE NOVENA,Hotel,,
117438,"10 PASIR PANJANG ROAD, SINGAPORE 117438",MAPLETREE BUSINESS CITY,Office,,
437844,"865 MOUNTBATTEN ROAD, SINGAPORE 437844",KATONG SHOPPING CENTRE,Retail,,
58268,"23 MERCHANT ROAD, SINGAPORE 058268",PARK REGIS SINGAPORE,Hotel,,
238877,"435 ORCHARD ROAD, SINGAPORE 238877",WISMA ATRIA,Retail,,
189621,"30 BENCOOLEN STREET, SINGAPORE 189621",30 BENCOOLEN,Hotel,,
238884,"583 ORCHARD ROAD, SINGAPORE 238884",FORUM,Mixed Development,,
149053,"1 QUEENSWAY, SINGAPORE 149053",QUEENSWAY SHOPPING CENTRE/QUEENSWAY TOWER,Retail,,
188425,"149 ROCHOR ROAD, SINGAPORE 188425",FU LU SHOU COMPLEX,Retail,,
228149,"1 SOPHIA ROAD, SINGAPORE 228149",PEACE CENTRE,Office,,
169875,"52 CHIN SWEE ROAD, SINGAPORE 169875",SEACARE BUILDING,Mixed Development,,
609925,"8 INTERNATIONAL BUSINESS PARK, SINGAPORE 609925",,Office,,
18981,"8 MARINA BOULEVARD, SINGAPORE 018981",MARINA BAY FINANCIAL CENTRE,Office,,
486040,"5 CHANGI BUSINESS PARK VISTA, SINGAPORE 486040",XILINX BUILDING,Office,,
98679,"23 BEACH VIEW, SINGAPORE 098679","LE MERIDIEN SINGAPORE, SENTOSA",Hotel,,
569814,"61 ANG MO KIO AVENUE 8, SINGAPORE 569814",,Retail,,
129905,"321 CLEMENTI AVENUE 3, SINGAPORE 129905",321 CLEMENTI,Retail,,
258352,"30 ORANGE GROVE ROAD, SINGAPORE 258352",RELC BUILDING,Hotel,,
199001,"100 JALAN SULTAN, SINGAPORE 199001",SULTAN PLAZA,Office,,
338730,"116 LAVENDER STREET, SINGAPORE 338730",PEK CHUAN BUILDING,Office,,
239519,"3 KILLINEY ROAD, SINGAPORE 239519",WINSLAND HOUSE I,Office,,
238463,"163 PENANG ROAD, SINGAPORE 238463",WINSLAND HOUSE II,Office,,
48980,"22 MALACCA STREET, SINGAPORE 048980",RB CAPITAL BUILDING,Office,,
237983,"1 UNITY STREET, SINGAPORE 237983",PARK HOTEL CLARKE QUAY,Hotel,,
179809,"10 COLEMAN STREET, SINGAPORE 179809",GRAND PARK CITY HALL,Hotel,,
98297,"1 THE KNOLLS, SINGAPORE 098297",,Hotel,,
68902,"112 ROBINSON ROAD, SINGAPORE 068902",ROBINSON 112,Office,,
79904,"51 ANSON ROAD, SINGAPORE 079904",ANSON CENTRE,Office,,
189559,"9 BRAS BASAH ROAD, SINGAPORE 189559",RENDEZVOUS HOTEL SINGAPORE,Hotel,,
228210,"9 SCOTTS ROAD, SINGAPORE 228210",PACIFIC PLAZA,Mixed Development,,
228518,"24 MOUNT ELIZABETH, SINGAPORE 228518",THE ELIZABETH,Hotel,,
247905,"1 TANGLIN ROAD, SINGAPORE 247905","ORCHARD RENDEZVOUS HOTEL, SINGAPORE",Hotel,,
178879,"1 SUPREME COURT LANE, SINGAPORE 178879",SUPREME COURT BUILDING,Office,,
59725,"3 HAVELOCK SQUARE, SINGAPORE 059725",,Office,,
169854,"16 COLLEGE ROAD, SINGAPORE 169854",COLLEGE OF MEDICINE BUILDING,Office,,
49709,"60 CECIL STREET, SINGAPORE 049709",ISCA HOUSE,Office,,
188974,"133 MIDDLE ROAD, SINGAPORE 188974",BOC PLAZA,Office,,
49908,"4 BATTERY ROAD, SINGAPORE 049908",BANK OF CHINA BUILDING,Office,,
48581,"16 RAFFLES QUAY, SINGAPORE 048581",HONG LEONG BUILDING,Office,,
49319,"20 COLLYER QUAY, SINGAPORE 049319",20 COLLYER QUAY,Office,,
169879,"175A CHIN SWEE ROAD, SINGAPORE 169879",,Hotel,,
69545,"158 CECIL STREET, SINGAPORE 069545",,Office,,
609914,"5 INTERNATIONAL BUSINESS PARK, SINGAPORE 609914",MEWAH BUILDING,Office,,
169075,"317 OUTRAM ROAD, SINGAPORE 169075",CONCORDE SHOPPING CENTRE,Hotel,,
89057,"11 KEPPEL ROAD, SINGAPORE 089057",ABI PLAZA,Office,,
486066,"51 CHANGI BUSINESS PARK CENTRAL 2, SINGAPORE 486066",THE SIGNATURE,Office,,
247909,"19 TANGLIN ROAD, SINGAPORE 247909",TANGLIN SHOPPING CENTRE,Mixed Development,,
188504,"1 ROCHOR CANAL ROAD, SINGAPORE 188504",SIM LIM SQUARE,Retail,,
88539,"165 TANJONG PAGAR ROAD, SINGAPORE 088539",AMARA SINGAPORE,Mixed Development,,
99394,"1 LARKHILL ROAD, SINGAPORE 099394",,Hotel,,
178881,"11 CANNING WALK, SINGAPORE 178881",HOTEL FORT CANNING,Hotel,,
428769,"50 EAST COAST ROAD, SINGAPORE 428769",ROXY SQUARE,Retail,,
59804,"60 EU TONG SEN STREET, SINGAPORE 059804",FURAMA CITY CENTRE SINGAPORE,Hotel,,
228211,"10 SCOTTS ROAD, SINGAPORE 228211",GRAND HYATT SINGAPORE,Hotel,,
609917,"1 INTERNATIONAL BUSINESS PARK, SINGAPORE 609917",THE SYNERGY,Office,,
49483,"3 CHURCH STREET, SINGAPORE 049483",SAMSUNG HUB,Office,,
238801,"2 ORCHARD TURN, SINGAPORE 238801",ION ORCHARD,Retail,,
178892,"61 STAMFORD ROAD, SINGAPORE 178892",STAMFORD COURT,Office,,
217564,"10 FARRER PARK STATION ROAD, SINGAPORE 217564",FARRER SQUARE,Hotel,,
59573,"2 MAGAZINE ROAD, SINGAPORE 059573",HOLIDAY INN EXPRESS SINGAPORE CLARKE QUAY,Hotel,,
117611,"31 SCIENCE PARK ROAD, SINGAPORE 117611",THE CRIMSON,Office,,
228209,"6 SCOTTS ROAD, SINGAPORE 228209",SCOTTS SQUARE,Retail,,
68877,"36 ROBINSON ROAD, SINGAPORE 068877",CITY HOUSE,Office,,
258350,"22 ORANGE GROVE ROAD, SINGAPORE 258350",SHANGRI-LA HOTEL,Hotel,,
49513,"65 CHULIA STREET, SINGAPORE 049513",OCBC CENTRE,Office,,
49479,"18 CHURCH STREET, SINGAPORE 049479",OCBC CENTRE SOUTH,Office,,
49514,"63 CHULIA STREET, SINGAPORE 049514",,Office,,
768794,"51 YISHUN CENTRAL 1, SINGAPORE 768794",YISHUN 10 CINEMA COMPLEX,Retail,,
486041,"9 CHANGI BUSINESS PARK VISTA, SINGAPORE 486041",DAS SPEKTRUM@CBP,Office,,
138562,"21 MEDIA CIRCLE, SINGAPORE 138562",INFINITE STUDIOS,Office,,
138577,"1 FUSIONOPOLIS VIEW, SINGAPORE 138577",SANDCRAWLER,Office,,
79906,"79 ANSON ROAD, SINGAPORE 079906",,Office,,
238856,"268 ORCHARD ROAD, SINGAPORE 238856",YEN SAN BUILDING,Retail,,
138588,"9 NORTH BUONA VISTA DRIVE, SINGAPORE 138588",THE METROPOLIS,Office,,
486005,"9 CHANGI BUSINESS PARK CRESCENT, SINGAPORE 486005",STANDARD CHARTERED @ CHANGI 2,Office,,
486028,"7 CHANGI BUSINESS PARK CRESCENT, SINGAPORE 486028",STANDARD CHARTERED @ CHANGI,Office,,
188933,"23 MIDDLE ROAD, SINGAPORE 188933",POPULOUS HOTEL,Hotel,,
689812,"21 CHOA CHU KANG AVENUE 4, SINGAPORE 689812","LOT ONE, SHOPPERS' MALL",Retail,,
609915,"9 INTERNATIONAL BUSINESS PARK, SINGAPORE 609915",MIWORLD,Office,,
609928,"10 INTERNATIONAL BUSINESS PARK, SINGAPORE 609928",,Office,,
189558,"76 BRAS BASAH ROAD, SINGAPORE 189558",CARLTON HOTEL,Hotel,,
78867,"1 TRAS LINK, SINGAPORE 078867",ORCHID HOTEL,Hotel,,
229617,"22 CAVENAGH ROAD, SINGAPORE 229617",,Hotel,,
229635,"28 CAVENAGH ROAD, SINGAPORE 229635",HOTEL CHANCELLOR @ ORCHARD,Hotel,,
58289,"3 UPPER PICKERING STREET, SINGAPORE 058289","PARKROYAL COLLECTION PICKERING, SINGAPORE",Hotel,,
680623,"623 CHOA CHU KANG STREET 62, SINGAPORE 680623",YEW TEE SQUARE,Retail,,
608531,"1 GATEWAY DRIVE, SINGAPORE 608531",WESTGATE TOWER,Mixed Development,,
118225,"12 SCIENCE PARK DRIVE, SINGAPORE 118225",THE MENDEL,Office,,
118255,"75 SCIENCE PARK DRIVE, SINGAPORE 118255",CINTECH II BUILDING,Office,,
118260,"87 SCIENCE PARK DRIVE, SINGAPORE 118260",OASIS,Retail,,
118261,"89 SCIENCE PARK DRIVE, SINGAPORE 118261",THE RUTHERFORD,Office,,
138543,"3 FUSIONOPOLIS LINK, SINGAPORE 138543",NEXUS @ONE-NORTH,Office,,
138665,"8 BIOMEDICAL GROVE, SINGAPORE 138665",NEUROS,Office,,
574408,"301 UPPER THOMSON ROAD, SINGAPORE 574408",THOMSON PLAZA,Retail,,
79117,"10 SHENTON WAY, SINGAPORE 079117",MAS BUILDING,Office,,
118536,"109 PASIR PANJANG ROAD, SINGAPORE 118536",CURRENCY HOUSE,Office,,
139965,"16 AYER RAJAH CRESCENT, SINGAPORE 139965",TEMPCO TECHNOMINIUM,Office,,
268802,"1 FIFTH AVENUE, SINGAPORE 268802",GUTHRIE HOUSE,Office,,
529540,"3 TAMPINES CENTRAL 1, SINGAPORE 529540",TAMPINES PLAZA 1,Office,,
529541,"5 TAMPINES CENTRAL 1, SINGAPORE 529541",TAMPINES PLAZA 2,Office,,
169629,"382 HAVELOCK ROAD, SINGAPORE 169629","FOUR POINTS BY SHERATON SINGAPORE, RIVERVIEW",Hotel,,
169078,"11 OUTRAM ROAD, SINGAPORE 169078",HEALTH SCIENCES AUTHORITY BUILDING,Office,,
49481,"23 CHURCH STREET, SINGAPORE 049481",CAPITAL SQUARE,Office,,
229572,"8 CLAYMORE HILL, SINGAPORE 229572",8 ON CLAYMORE,Hotel,,
188735,"470 NORTH BRIDGE ROAD, SINGAPORE 188735",BUGIS CUBE,Retail,,
428788,"86 EAST COAST ROAD, SINGAPORE 428788",KATONG SQUARE,Hotel,,
68895,"71 ROBINSON ROAD, SINGAPORE 068895",,Office,,
117610,"41 SCIENCE PARK ROAD, SINGAPORE 117610",THE GEMINI,Office,,
117586,"51 SCIENCE PARK ROAD, SINGAPORE 117586",THE ARIES,Office,,
486073,"17 CHANGI BUSINESS PARK CENTRAL 1, SINGAPORE 486073",HONEYWELL BUILDING,Office,,
486051,"3 CHANGI BUSINESS PARK VISTA, SINGAPORE 486051",,Office,,
486025,"1 CHANGI BUSINESS PARK CRESCENT, SINGAPORE 486025",PLAZA 8 @ CBP,Office,,
486036,"1 CHANGI BUSINESS PARK CENTRAL 1, SINGAPORE 486036",ONE @ CHANGI CITY,Office,,
486026,"3 CHANGI BUSINESS PARK CRESCENT, SINGAPORE 486026",,Office,,
486058,"1 CHANGI BUSINESS PARK AVENUE 1, SINGAPORE 486058",,Office,,
486029,"2 CHANGI BUSINESS PARK CRESCENT, SINGAPORE 486029",DBS ASIA HUB,Office,,
575701,"10 SIN MING DRIVE, SINGAPORE 575701",LAND TRANSPORT AUTHORITY,Office,,
219428,"1 HAMPSHIRE ROAD, SINGAPORE 219428",LAND TRANSPORT AUTHORITY,Office,,
189677,"15 BEACH ROAD, SINGAPORE 189677",BEACH CENTRE,Office,,
238879,"442 ORCHARD ROAD, SINGAPORE 238879",ORCHARD HOTEL SINGAPORE,Hotel,,
188018,"101 VICTORIA STREET, SINGAPORE 188018",HOTEL GRAND PACIFIC,Hotel,,
168732,"302 TIONG BAHRU ROAD, SINGAPORE 168732",TIONG BAHRU PLAZA,Retail,,
518457,"1 PASIR RIS CENTRAL STREET 3, SINGAPORE 518457",,Retail,,
138547,"70 BIOPOLIS STREET, SINGAPORE 138547",,Office,,
609081,"15 SCIENCE CENTRE ROAD, SINGAPORE 609081",SINGAPORE SCIENCE CENTRE,Office,,
88762,"391 NEW BRIDGE ROAD, SINGAPORE 088762",POLICE CANTONMENT COMPLEX,Office,,
258510,"18 NAPIER ROAD, SINGAPORE 258510",,Office,,
49907,"2 BATTERY ROAD, SINGAPORE 049907",MAYBANK TOWER,Office,,
79908,"81 ANSON ROAD, SINGAPORE 079908",M HOTEL,Hotel,,
589472,"896 DUNEARN ROAD, SINGAPORE 589472",LINK@896,Mixed Development,,
68911,"39 ROBINSON ROAD, SINGAPORE 068911",ROBINSON POINT,Office,,
78884,"7 WALLICH STREET, SINGAPORE 078884",TANJONG PAGAR CENTRE,Office,,
679910,"101 BUKIT PANJANG ROAD, SINGAPORE 679910",,Office,,
48424,"8 CROSS STREET, SINGAPORE 048424",MANULIFE TOWER,Office,,
329727,"279 BALESTIER ROAD, SINGAPORE 329727",BALESTIER POINT,Retail,,
49315,"10 COLLYER QUAY, SINGAPORE 049315",OCEAN FINANCIAL CENTRE,Office,,
59724,"1 HAVELOCK SQUARE, SINGAPORE 059724",STATE COURTS,Office,,
39594,"6 RAFFLES BOULEVARD, SINGAPORE 039594",MARINA SQUARE,Retail,,
188980,"200 MIDDLE ROAD, SINGAPORE 188980",HOTEL G SINGAPORE,Hotel,,
219924,"3 BELILIOS ROAD, SINGAPORE 219924",HILTON GARDEN INN SINGAPORE SERANGOON,Hotel,,
298135,"510 THOMSON ROAD, SINGAPORE 298135",SLF BUILDING,Mixed Development,,
486854,"722 UPPER CHANGI ROAD EAST, SINGAPORE 486854",TECHSQ,Office,,
59763,"2 HAVELOCK ROAD, SINGAPORE 059763",HAVELOCK2,Retail,,
307683,"238 THOMSON ROAD, SINGAPORE 307683",NOVENA SQUARE,Office,,
329560,"28 IRRAWADDY ROAD, SINGAPORE 329560",NEW PHOENIX PARK,Office,,
428766,"46 EAST COAST ROAD, SINGAPORE 428766",EASTGATE,Office,,
249715,"1 CUSCADEN ROAD, SINGAPORE 249715",THE REGENT SINGAPORE,Hotel,,
239693,"1 GRANGE ROAD, SINGAPORE 239693",ORCHARD BUILDING,Office,,
499867,"1 AVIATION DRIVE, SINGAPORE 499867",,Office,,
238881,"541 ORCHARD ROAD, SINGAPORE 238881",LIAT TOWERS,Mixed Development,,
88756,"291 NEW BRIDGE ROAD, SINGAPORE 088756",THE ORIENTAL PLAZA,Retail,,
238868,"350 ORCHARD ROAD, SINGAPORE 238868",SHAW HOUSE,Office,,
228208,"1 SCOTTS ROAD, SINGAPORE 228208",SHAW CENTRE,Office,,
529510,"4 TAMPINES CENTRAL 5, SINGAPORE 529510",TAMPINES MALL,Retail,,
208533,"181 KITCHENER ROAD, SINGAPORE 208533",PARKROYAL ON KITCHENER ROAD,Hotel,,
228221,"16 SCOTTS ROAD, SINGAPORE 228221",GOODWOOD PARK HOTEL,Hotel,,
49323,"70 COLLYER QUAY, SINGAPORE 049323",CUSTOMS HOUSE,Hotel,,
99538,"51 IMBIAH WALK, SINGAPORE 099538",,Hotel,,
237995,"11 UNITY STREET, SINGAPORE 237995",ROBERTSON WALK,Hotel,,
486150,"1 EXPO DRIVE, SINGAPORE 486150",SINGAPORE EXPO,Retail,,
609920,"12 INTERNATIONAL BUSINESS PARK, SINGAPORE 609920",SWIBER@IBP,Office,,
68907,"140 ROBINSON ROAD, SINGAPORE 068907",CROWN AT ROBINSON,Office,,
509866,"351 CRANWELL ROAD, SINGAPORE 509866",CHANGI COVE,Hotel,,
238993,"53 MOHAMED SULTAN ROAD, SINGAPORE 238993",SULTAN-LINK,Office,,
238995,"55 MOHAMED SULTAN ROAD, SINGAPORE 238995",SULTAN-LINK,Office,,
238997,"57 MOHAMED SULTAN ROAD, SINGAPORE 238997",SULTAN-LINK,Office,,
238999,"59 MOHAMED SULTAN ROAD, SINGAPORE 238999",SULTAN-LINK,Office,,
239001,"61 MOHAMED SULTAN ROAD, SINGAPORE 239001",SULTAN-LINK,Office,,
239002,"63 MOHAMED SULTAN ROAD, SINGAPORE 239002",SULTAN-LINK,Office,,
228241,"51 SCOTTS ROAD, SINGAPORE 228241",,Office,,
534626,"756 UPPER SERANGOON ROAD, SINGAPORE 534626",UPPER SERANGOON SHOPPING CENTRE,Retail,,
278997,"118 HOLLAND AVENUE, SINGAPORE 278997",RAFFLES HOLLAND V,Retail,,
609431,"9 JURONG TOWN HALL ROAD, SINGAPORE 609431",JURONG TOWN HALL,Office,,
609434,"8 JURONG TOWN HALL ROAD, SINGAPORE 609434",THE JTC SUMMIT,Office,,
139961,"69 AYER RAJAH CRESCENT, SINGAPORE 139961",AYER RAJAH AMENITY CENTRE,Retail,,
138632,"1 FUSIONOPOLIS WAY, SINGAPORE 138632",CONNEXIS,Office,,
138667,"11 BIOPOLIS WAY, SINGAPORE 138667",HELIOS,Office,,
138634,"2 FUSIONOPOLIS WAY, SINGAPORE 138634",INNOVIS,Office,,
138635,"4 FUSIONOPOLIS WAY, SINGAPORE 138635",KINESIS,Office,,
138636,"6 FUSIONOPOLIS WAY, SINGAPORE 138636",SYNTHESIS,Office,,
238865,"320 ORCHARD ROAD, SINGAPORE 238865",SINGAPORE MARRIOTT TANG PLAZA HOTEL,Hotel,,
498760,"9 AVIATION PARK ROAD, SINGAPORE 498760",CHANGI EXHIBITION CENTRE,Retail,,
545078,"1 SENGKANG SQUARE, SINGAPORE 545078",COMPASS ONE,Retail,,
319639,"397 LORONG 2 TOA PAYOH, SINGAPORE 319639",,Office,,
529284,"5 TAMPINES STREET 32, SINGAPORE 529284",,Retail,,
59811,"90 EU TONG SEN STREET, SINGAPORE 059811",,Office,,
359340,"1 FRANCIS THOMAS DRIVE, SINGAPORE 359340",DIOCESAN CENTRE BUILDING,Office,,
39596,"9 RAFFLES BOULEVARD, SINGAPORE 039596",MILLENIA WALK,Mixed Development,,
39190,"3 TEMASEK AVENUE, SINGAPORE 039190",CENTENNIAL TOWER,Office,,
48622,"30 RAFFLES PLACE, SINGAPORE 048622",OXLEY @ RAFFLES,Office,,
187948,"10 PRINSEP LINK, SINGAPORE 187948",SUNSHINE PLAZA,Office,,
530205,"205 HOUGANG STREET 21, SINGAPORE 530205",HEARTLAND MALL- KOVAN,Retail,,
307987,"55 NEWTON ROAD, SINGAPORE 307987",REVENUE HOUSE,Office,,
79903,"10 ANSON ROAD, SINGAPORE 079903",INTERNATIONAL PLAZA,Office,,
68602,"137 TELOK AYER STREET, SINGAPORE 068602",,Office,,
169632,"403 HAVELOCK ROAD, SINGAPORE 169632",COPTHORNE KING'S HOTEL,Hotel,,
69533,"101 CECIL STREET, SINGAPORE 069533",TONG ENG BUILDING,Office,,
99891,"2 BUKIT MANIS ROAD, SINGAPORE 099891",THE SINGAPORE RESORT & SPA,Hotel,,
49247,"2 FINLAYSON GREEN, SINGAPORE 049247",ASCOTT SINGAPORE RAFFLES PLACE,Hotel,,
238855,"260 ORCHARD ROAD, SINGAPORE 238855",THE HEEREN,Mixed Development,,
49711,"64 CECIL STREET, SINGAPORE 049711",IOB BUILDING,Office,,
228796,"5 KOEK ROAD, SINGAPORE 228796",CUPPAGE PLAZA,Retail,,
229469,"51 CUPPAGE ROAD, SINGAPORE 229469",51 CUPPAGE ROAD,Office,,
486031,"20 CHANGI BUSINESS PARK CENTRAL 2, SINGAPORE 486031",RIGEL INNOVATION CENTRE,Office,,
529483,"2 TAMPINES CENTRAL 6, SINGAPORE 529483",INCOME AT TAMPINES POINT,Office,,
528833,"3 SIMEI STREET 6, SINGAPORE 528833",EASTPOINT MALL,Retail,,
188647,"30 PRINSEP STREET, SINGAPORE 188647",INCOME AT PRINSEP,Mixed Development,,
189557,"75 BRAS BASAH ROAD, SINGAPORE 189557",INCOME CENTRE,Office,,
237994,"1 KIM SENG PROMENADE, SINGAPORE 237994",GREAT WORLD CITY,Mixed Development,,
238883,"581 ORCHARD ROAD, SINGAPORE 238883",HILTON INTERNATIONAL SINGAPORE,Mixed Development,,
238876,"402 ORCHARD ROAD, SINGAPORE 238876",DELFI ORCHARD,Retail,,
119962,"456 ALEXANDRA ROAD, SINGAPORE 119962",FRAGRANCE EMPIRE BUILDING,Office,,
797653,"33 SENGKANG WEST AVENUE, SINGAPORE 797653",THE SELETAR MALL,Retail,,
486006,"15 CHANGI BUSINESS PARK CRESCENT, SINGAPORE 486006",HAITE BUILDING,Office,,
238857,"270 ORCHARD ROAD, SINGAPORE 238857",GRAND PARK ORCHARD,Hotel,,
48616,"1 RAFFLES PLACE, SINGAPORE 048616",ONE RAFFLES PLACE,Office,,
89058,"19 KEPPEL ROAD, SINGAPORE 089058",JIT POH BUILDING,Office,,
249716,"1A CUSCADEN ROAD, SINGAPORE 249716",JEN SINGAPORE TANGLIN BY SHANGRI-LA,Hotel,,
69538,"138 CECIL STREET, SINGAPORE 069538",CECIL COURT,Office,,
249564,"51 GRANGE ROAD, SINGAPORE 249564",,Office,,
149599,"402 COMMONWEALTH DRIVE, SINGAPORE 149599",,Office,,
138675,"1 NORTH BUONA VISTA DRIVE, SINGAPORE 138675",MOE BUILDING,Office,,
118221,"1 SCIENCE PARK DRIVE, SINGAPORE 118221",TUV SUD PSB BUILDING,Office,,
519599,"1 PASIR RIS CLOSE, SINGAPORE 519599",E!HUB@DOWNTOWN EAST,Mixed Development,,
528799,"3 TAMPINES GRANDE, SINGAPORE 528799",,Office,,
119963,"460 ALEXANDRA ROAD, SINGAPORE 119963",MTOWER,Office,,
229921,"20 BIDEFORD ROAD, SINGAPORE 229921",HOLIDAY INN EXPRESS SINGAPORE ORCHARD ROAD,Hotel,,
609926,"11 INTERNATIONAL BUSINESS PARK, SINGAPORE 609926",HI-P BUILDING,Office,,
179098,"111 NORTH BRIDGE ROAD, SINGAPORE 179098",PENINSULA PLAZA,Mixed Development,,
179020,"3A RIVER VALLEY ROAD, SINGAPORE 179020",MERCHANTS' COURT,Retail,,
228516,"21 MOUNT ELIZABETH, SINGAPORE 228516",YORK HOTEL,Hotel,,
200809,"809 FRENCH ROAD, SINGAPORE 200809",KITCHENER COMPLEX,Mixed Development,,
50336,"336 SMITH STREET, SINGAPORE 050336",NEW BRIDGE CENTRE,Office,,
750511,"511 CANBERRA ROAD, SINGAPORE 750511",SEMBAWANG MART,Retail,,
127371,"154 WEST COAST ROAD, SINGAPORE 127371",WEST COAST PLAZA,Retail,,
329802,"400 BALESTIER ROAD, SINGAPORE 329802",BALESTIER PLAZA,Retail,,
287994,"200 TURF CLUB ROAD, SINGAPORE 287994",THE GRANDSTAND,Retail,,
689578,"21 CHOA CHU KANG NORTH 6, SINGAPORE 689578",YEWTEE POINT,Retail,,
127367,"145 WEST COAST ROAD, SINGAPORE 127367",,Office,,
307506,"10 SINARAN DRIVE, SINGAPORE 307506",SQUARE 2,Mixed Development,,
199020,"500 JALAN SULTAN, SINGAPORE 199020",HOTEL BOSS,Hotel,,
208767,"70 JELLICOE ROAD, SINGAPORE 208767",V HOTEL LAVENDER,Hotel,,
209530,"3 DICKSON ROAD, SINGAPORE 209530",,Hotel,,
189623,"41 BENCOOLEN STREET, SINGAPORE 189623",HOTEL MI,Hotel,,
189627,"48 BENCOOLEN STREET, SINGAPORE 189627",V HOTEL BENCOOLEN,Hotel,,
424780,"1 ONAN ROAD, SINGAPORE 424780",TRISTAR INN,Hotel,,
329901,"592 BALESTIER ROAD, SINGAPORE 329901",VALUE HOTEL - THOMSON,Hotel,,
49317,"11 COLLYER QUAY, SINGAPORE 049317",THE ARCADE,Office,,
608549,"50 JURONG GATEWAY ROAD, SINGAPORE 608549",JEM,Retail,,
189649,"175 BENCOOLEN STREET, SINGAPORE 189649",BURLINGTON SQUARE,Office,,
228242,"50 SCOTTS ROAD, SINGAPORE 228242",,Office,,
329982,"16 AH HOOD ROAD, SINGAPORE 329982",RAMADA SINGAPORE AT ZHONGSHAN PARK,Hotel,,
538692,"1 HOUGANG STREET 91, SINGAPORE 538692",HOUGANG 1,Retail,,
239695,"8 GRANGE ROAD, SINGAPORE 239695",CATHAY CINELEISURE ORCHARD,Retail,,
229233,"2 HANDY ROAD, SINGAPORE 229233",THE CATHAY,Retail,,
533971,"1187 UPPER SERANGOON ROAD, SINGAPORE 533971",THE MIDTOWN,Retail,,
48659,"1 PICKERING STREET, SINGAPORE 048659",GREAT EASTERN CENTRE,Office,,
428802,"112 EAST COAST ROAD, SINGAPORE 428802",112 KATONG,Retail,,
259366,"21 EVANS ROAD, SINGAPORE 259366",SCHOOL OF PHYSICAL EDUCATION SWIMMING COMPLEX,Office,,
398007,"229 MOUNTBATTEN ROAD, SINGAPORE 398007",MOUNTBATTEN SQUARE,Office,,
609929,"16 INTERNATIONAL BUSINESS PARK, SINGAPORE 609929",,Office,,
249720,"21 CUSCADEN ROAD, SINGAPORE 249720",MING ARCADE,Retail,,
58727,"150 SOUTH BRIDGE ROAD, SINGAPORE 058727",FOOK HAI BUILDING,Office,,
159052,"8 LENGKOK BAHRU, SINGAPORE 159052",FAMILY LINK @ LENGKOK BAHRU,Office,,
179869,"7 CANNING RISE, SINGAPORE 179869",REGISTRY OF MARRIAGES,Office,,
539540,"1 DEFU AVENUE 1, SINGAPORE 539540",,Office,,
574421,"600 UPPER THOMSON ROAD, SINGAPORE 574421",UPPER THOMSON COMMUNITY HUB,Office,,
409074,"11 JALAN UBI, SINGAPORE 409074",KEMBANGAN-CHAI CHEE COMMUNITY HUB,Office,,
649696,"30 JURONG WEST STREET 24, SINGAPORE 649696",SINGAPORE BOYS' HOME,Office,,
159053,"20 LENGKOK BAHRU, SINGAPORE 159053",ENABLING VILLAGE,Office,,
648172,"3 BULIM DRIVE, SINGAPORE 648172",,Office,,
68892,"60 ROBINSON ROAD, SINGAPORE 068892",BEA BUILDING,Office,,
179804,"3 COLEMAN STREET, SINGAPORE 179804",PENINSULA SHOPPING COMPLEX,Hotel,,
208511,"101 KITCHENER ROAD, SINGAPORE 208511",JALAN BESAR PLAZA,Office,,
217562,"1 FARRER PARK STATION ROAD, SINGAPORE 217562",CONNEXION,Retail,,
239920,"83 CLEMENCEAU AVENUE, SINGAPORE 239920",UE SQUARE,Office,,
119960,"450 ALEXANDRA ROAD, SINGAPORE 119960",,Office,,
138639,"35 ROCHESTER DRIVE, SINGAPORE 138639",THE ROCHESTER,Retail,,
49246,"1 FINLAYSON GREEN, SINGAPORE 049246",ONE FINLAYSON GREEN,Office,,
538832,"93 HOUGANG AVENUE 4, SINGAPORE 538832",,Office,,
238840,"100 ORCHARD ROAD, SINGAPORE 238840",CONCORDE HOTEL AND SHOPPING MALL,Mixed Development,,
159047,"2 LENGKOK BAHRU, SINGAPORE 159047",,Office,,
189646,"180 BENCOOLEN STREET, SINGAPORE 189646",THE BENCOOLEN,Retail,,
159972,"323 ALEXANDRA ROAD, SINGAPORE 159972",ALEXANDRA CENTRAL,Hotel,,
179360,"30 HILL STREET, SINGAPORE 179360",,Office,,
159953,"370 ALEXANDRA ROAD, SINGAPORE 159953",ANCHORPOINT SHOPPING CENTRE,Retail,,
169565,"298 JALAN BUKIT HO SWEE, SINGAPORE 169565",,Office,,
79909,"3 ANSON ROAD, SINGAPORE 079909",SPRINGLEAF TOWER,Office,,
58357,"101 UPPER CROSS STREET, SINGAPORE 058357",PEOPLE'S PARK CENTRE,Mixed Development,,
58416,"20 UPPER CIRCULAR ROAD, SINGAPORE 058416",THE RIVERWALK,Mixed Development,,
38983,"3 TEMASEK BOULEVARD, SINGAPORE 038983",SUNTEC CITY MALL,Office,,
238862,"302 ORCHARD ROAD, SINGAPORE 238862",TONG BUILDING,Office,,
609958,"90 BOON LAY WAY, SINGAPORE 609958",YUHUA COMMUNITY CLUB,Office,,
207569,"165 TYRWHITT ROAD, SINGAPORE 207569",PARC SOVEREIGN HOTEL - TYRWHITT,Hotel,,
138522,"1 FUSIONOPOLIS PLACE, SINGAPORE 138522",GALAXIS,Office,,
588179,"170 UPPER BUKIT TIMAH ROAD, SINGAPORE 588179",BUKIT TIMAH SHOPPING CENTRE,Retail,,
48624,"80 RAFFLES PLACE, SINGAPORE 048624",UOB PLAZA,Office,,
69544,"156 CECIL STREET, SINGAPORE 069544",FAR EASTERN BANK BUILDING,Office,,
119954,"396 ALEXANDRA ROAD, SINGAPORE 119954",UOB ALEXANDRA BUILDING,Office,,
529539,"1 TAMPINES CENTRAL 1, SINGAPORE 529539",UOB TAMPINES CENTRE,Office,,
199598,"700 BEACH ROAD, SINGAPORE 199598",PREMIER INN,Hotel,,
150168,"168 JALAN BUKIT MERAH, SINGAPORE 150168",CONNECTION ONE,Office,,
310490,"490 LORONG 6 TOA PAYOH, SINGAPORE 310490",HDB HUB,Office,,
118257,"81 SCIENCE PARK DRIVE, SINGAPORE 118257",THE CHADWICK,Office,,
118258,"83 SCIENCE PARK DRIVE, SINGAPORE 118258",THE CURIE,Office,,
118259,"85 SCIENCE PARK DRIVE, SINGAPORE 118259",THE CAVENDISH,Office,,
208581,"9 KING GEORGES AVENUE, SINGAPORE 208581",PEOPLE'S ASSOCIATION,Office,,
68914,"160 ROBINSON ROAD, SINGAPORE 068914",SINGAPORE BUSINESS FEDERATION CENTER,Office,,
428778,"66 EAST COAST ROAD, SINGAPORE 428778",THE FLOW MALL,Retail,,
409051,"60 PAYA LEBAR ROAD, SINGAPORE 409051",PAYA LEBAR SQUARE,Office,,
69110,"5 MAXWELL ROAD, SINGAPORE 069110",MND BUILDING,Office,,
188969,"111 MIDDLE ROAD, SINGAPORE 188969",NATIONAL DESIGN CENTRE,Office,,
569663,"5 ANG MO KIO CENTRAL 2, SINGAPORE 569663",DJIT SUN MALL,Retail,,
469661,"445 BEDOK NORTH STREET 1, SINGAPORE 469661",DJITSUN MALL BEDOK,Retail,,
228233,"47 SCOTTS ROAD, SINGAPORE 228233",GOLDBELL TOWERS,Office,,
399849,"511 GUILLEMARD ROAD, SINGAPORE 399849",GRANDLINK SQUARE,Retail,,
68805,"3 SHENTON WAY, SINGAPORE 068805",SHENTON HOUSE,Office,,
209037,"1 JALAN BERSEH, SINGAPORE 209037",NEW WORLD CENTRE,Office,,
579702,"273 BRADDELL ROAD, SINGAPORE 579702",MAJLIS UGAMA ISLAM SINGAPURA,Office,,
39802,"8 RAFFLES AVENUE, SINGAPORE 039802",ESPLANADE MALL,Retail,,
188994,"210 MIDDLE ROAD, SINGAPORE 188994",SINGAPORE POOLS BUILDING,Office,,
238869,"360 ORCHARD ROAD, SINGAPORE 238869",INTERNATIONAL BUILDING,Office,,
88765,"333 NEW BRIDGE ROAD, SINGAPORE 088765",DORSETT SINGAPORE,Hotel,,
119614,"30 HENG MUI KENG TERRACE, SINGAPORE 119614",INSTITUTE OF SOUTH EAST ASIA STUDIES,Office,,
129588,"3155 COMMONWEALTH AVENUE WEST, SINGAPORE 129588",THE CLEMENTI MALL,Retail,,
238859,"290 ORCHARD ROAD, SINGAPORE 238859",THE PARAGON,Retail,,
409179,"20 JALAN AFIFI, SINGAPORE 409179",CERTIS CISCO CENTRE,Office,,
667970,"1 HILLVIEW RISE, SINGAPORE 667970",,Office,,
18960,"8 MARINA VIEW, SINGAPORE 018960",ASIA SQUARE TOWER 1,Office,,
98499,"2 HARBOURFRONT PLACE, SINGAPORE 098499",BANK OF AMERICA MERRILL LYNCH HARBOURFRONT,Office,,
228230,"39 SCOTTS ROAD, SINGAPORE 228230",SHERATON TOWERS HOTEL,Hotel,,
88934,"3 LIM TECK KIM ROAD, SINGAPORE 088934",GENTING CENTRE,Office,,
608516,"2 TOWN HALL LINK, SINGAPORE 608516",GENTING HOTEL JURONG,Hotel,,
98269,"8 SENTOSA GATEWAY, SINGAPORE 098269",RESORTS WORLD SENTOSA,Retail,,
238843,"176 ORCHARD ROAD, SINGAPORE 238843",THE CENTREPOINT,Retail,,
467360,"311 NEW UPPER CHANGI ROAD, SINGAPORE 467360",BEDOK MALL,Retail,,
49321,"50 COLLYER QUAY, SINGAPORE 049321",OUE BAYFRONT,Mixed Development,,
238164,"111 SOMERSET ROAD, SINGAPORE 238164",111 SOMERSET,Office,,
506969,"984 UPPER CHANGI ROAD NORTH, SINGAPORE 506969",,Office,,
68811,"8 SHENTON WAY, SINGAPORE 068811",AXA TOWER,Office,,
199591,"7500A BEACH ROAD, SINGAPORE 199591",THE PLAZA,Mixed Development,,
79914,"60 ANSON ROAD, SINGAPORE 079914",MAPLETREE ANSON,Office,,
678278,"17 PETIR ROAD, SINGAPORE 678278",HILLION MALL,Retail,,
588996,"1 JALAN ANAK BUKIT, SINGAPORE 588996",BUKIT TIMAH PLAZA,Retail,,
188973,"122 MIDDLE ROAD, SINGAPORE 188973",MERCURE SINGAPORE BUGIS,Hotel,,
149073,"3 QUEENSWAY, SINGAPORE 149073",SCDF HQ 1ST CD DIVISION,Office,,
574029,"1 MARYMOUNT LANE, SINGAPORE 574029",,Office,,
545064,"50 BUANGKOK DRIVE, SINGAPORE 545064",,Office,,
528777,"1 TAMPINES INDUSTRIAL AVENUE 3, SINGAPORE 528777",SCDF HQ 2ND CD DIVISION,Office,,
408827,"91 UBI AVENUE 4, SINGAPORE 408827",HQ SINGAPORE CIVIL DEFENCE FORCE,Office,,
658072,"80 BUKIT BATOK ROAD, SINGAPORE 658072",SCDF HQ 4TH CD DIVISION,Office,,
649734,"101 JALAN BAHAR, SINGAPORE 649734",CIVIL DEFENCE ACADEMY,Office,,
649735,"91 JALAN BAHAR, SINGAPORE 649735",SCDF JALAN BAHAR CAMP,Office,,
768774,"533 YISHUN INDUSTRIAL PARK A, SINGAPORE 768774",SCDF HQ 3RD CD DIVISION,Office,,
569933,"53 ANG MO KIO AVENUE 3, SINGAPORE 569933",AMK HUB,Retail,,
159971,"321 ALEXANDRA ROAD, SINGAPORE 159971",ALEXANDRA CENTRAL,Retail,,
169662,"390 HAVELOCK ROAD, SINGAPORE 169662",KING'S CENTRE,Office,,
48619,"9 RAFFLES PLACE, SINGAPORE 048619",REPUBLIC PLAZA,Office,,
59567,"1 MAGAZINE ROAD, SINGAPORE 059567",CENTRAL MALL,Office,,
208539,"180 KITCHENER ROAD, SINGAPORE 208539",CITY SQUARE MALL,Retail,,
486037,"3 CHANGI BUSINESS PARK CENTRAL 1, SINGAPORE 486037",CAPRI BY FRASER CHANGI CITY,Hotel,,
68809,"6 SHENTON WAY, SINGAPORE 068809",OUE DOWNTOWN,Office,,
420001,"1 JOO CHIAT ROAD, SINGAPORE 420001",JOO CHIAT COMPLEX,Retail,,
730548,"548 WOODLANDS DRIVE 44, SINGAPORE 730548",VISTA POINT,Retail,,
100108,"108 DEPOT ROAD, SINGAPORE 100108",DEPOT HEIGHTS SHOPPING CENTRE,Retail,,
49145,"1 GEORGE STREET, SINGAPORE 049145",ONE GEORGE STREET,Office,,
18961,"12 MARINA VIEW, SINGAPORE 018961",ASIA SQUARE TOWER 2,Office,,
49909,"6 BATTERY ROAD, SINGAPORE 049909",,Office,,
49320,"21 COLLYER QUAY, SINGAPORE 049320",HSBC BUILDING,Office,,
68912,"168 ROBINSON ROAD, SINGAPORE 068912",CAPITAL TOWER,Office,,
68899,"96 ROBINSON ROAD, SINGAPORE 068899",SIF BUILDING,Office,,
758459,"604 SEMBAWANG ROAD, SINGAPORE 758459",SEMBAWANG SHOPPING CENTRE,Retail,,
247729,"1 ORCHARD SPRING LANE, SINGAPORE 247729",TOURISM COURT,Office,,
169633,"405 HAVELOCK ROAD, SINGAPORE 169633",,Hotel,,
207606,"8 TOWNSHEND ROAD, SINGAPORE 207606",J8 HOTEL,Hotel,,
218675,"429 RACE COURSE ROAD, SINGAPORE 218675",MORI HOSTEL,Hotel,,
117867,"27 WEST COAST HIGHWAY, SINGAPORE 117867",WESTWAY,Retail,,
275983,"31 NORTH BUONA VISTA ROAD, SINGAPORE 275983",CIVIL SERVICE COLLEGE,Office,,
69118,"45 MAXWELL ROAD, SINGAPORE 069118",THE URA CENTRE,Office,,
48423,"18 CROSS STREET, SINGAPORE 048423",CROSS STREET EXCHANGE,Office,,
139944,"26 AYER RAJAH CRESCENT, SINGAPORE 139944",SEAGATE SINGAPORE DESIGN CENTER - THE SHUGART,Office,,
159835,"2 BUKIT MERAH CENTRAL, SINGAPORE 159835",,Office,,
248922,"1 KAY SIANG ROAD, SINGAPORE 248922",,Office,,
449269,"80 MARINE PARADE ROAD, SINGAPORE 449269",PARKWAY PARADE,Office,,
178906,"15 STAMFORD ROAD, SINGAPORE 178906",THE CAPITOL KEMPINSKI HOTEL SINGAPORE,Hotel,,
486032,"22 CHANGI BUSINESS PARK CENTRAL 2, SINGAPORE486032",THE KINGSMEN EXPERIENCE,Office,,
79912,"20 ANSON ROAD, SINGAPORE 079912",TWENTY ANSON,Office,,
58282,"30 MERCHANT ROAD, SINGAPORE 058282",RIVERSIDE POINT,Mixed Development,,
49705,"20 CECIL STREET, SINGAPORE 049705",PLUS,Office,,
189768,"26 BEACH ROAD, SINGAPORE 189768",,Mixed Development,,
610399,"399 YUNG SHENG ROAD, SINGAPORE 610399",TAMAN JURONG SHOPPING CENTRE,Retail,,
99958,"39 ARTILLERY AVENUE, SINGAPORE 099958",SENTOSA DEVELOPMENT CORPORATION OFFICE,Office,,
319394,"450 LORONG 6 TOA PAYOH, SINGAPORE 319394",ERA APAC CENTRE,Office,,
738099,"1 WOODLANDS SQUARE, SINGAPORE 738099",CAUSEWAY POINT,Retail,,
419734,"200 CHANGI ROAD, SINGAPORE 419734",GREAT EASTERN @ CHANGI,Office,,
189685,"49 BEACH ROAD, SINGAPORE 189685",GREAT EASTERN HOUSE,Office,,
69543,"150 CECIL STREET, SINGAPORE 069543",,Office,,
658713,"1 BUKIT BATOK CENTRAL LINK, SINGAPORE 658713",WEST MALL,Retail,,
48692,"1 PHILLIP STREET, SINGAPORE 048692",ROYAL ONE PHILLIP,Office,,
48693,"3 PHILLIP STREET, SINGAPORE 048693",ROYAL GROUP BUILDING,Office,,
69546,"180 CECIL STREET, SINGAPORE 069546",BANGKOK BANK BUILDING,Office,,
238851,"218 ORCHARD ROAD, SINGAPORE 238851",ORCHARD GATEWAY @ EMERALD,Retail,,
398008,"223 MOUNTBATTEN ROAD, SINGAPORE 398008",223 @ MOUNTBATTEN,Office,,
119975,"991G ALEXANDRA ROAD, SINGAPORE 119975",,Office,,
98632,"1 HARBOURFRONT AVENUE, SINGAPORE 098632",KEPPEL BAY TOWER,Office,,
528523,"1 TAMPINES WALK, SINGAPORE 528523",OUR TAMPINES HUB,Office,,
468981,"71 CHAI CHEE STREET, SINGAPORE 468981",,Office,,
677899,"1 WOODLANDS ROAD, SINGAPORE 677899",JUNCTION 10,Retail,,
556679,"1 MAJU AVENUE, SINGAPORE 556679",MYVILLAGE AT SERANGOON GARDEN,Retail,,
228095,"8 WILKIE ROAD, SINGAPORE 228095",WILKIE EDGE,Office,,
209000,"380 JALAN BESAR, SINGAPORE 209000",ARC 380,Office,,
189971,"180 ALBERT STREET, SINGAPORE 189971",VILLAGE HOTEL ALBERT COURT,Hotel,,
59432,"211 NEW BRIDGE ROAD, SINGAPORE 059432",LUCKY CHINATOWN,Retail,,
508502,"1 NETHERAVON ROAD, SINGAPORE 508502",VILLAGE HOTEL CHANGI,Hotel,,
449536,"25 MARINE PARADE, SINGAPORE 449536",VILLAGE HOTEL KATONG,Hotel,,
48472,"92 TELOK AYER STREET, SINGAPORE 048472",,Retail,,
208718,"10 KALLANG ROAD, SINGAPORE 208718",ICA BUILDING,Office,,
89760,"120 CANTONMENT ROAD, SINGAPORE 089760",MARITIME HOUSE,Office,,
738973,"10 WOODLANDS AVENUE 8, SINGAPORE 738973",HDB CENTRE OF BUILDING RESEARCH,Office,,
98829,"52 TELOK BLANGAH ROAD, SINGAPORE 098829",TELOK BLANGAH HOUSE,Retail,,
397799,"230 STADIUM BOULEVARD, SINGAPORE 397799",,Retail,,
828761,"83 PUNGGOL CENTRAL, SINGAPORE 828761",WATERWAY POINT,Retail,,
118176,"70 SOUTH BUONA VISTA ROAD, SINGAPORE 118176",NATIONAL COMMUNITY LEADERSHIP INSTITUTE,Office,,
648171,"1 BULIM DRIVE, SINGAPORE 648171",CUSTOMS OPERATIONS COMMAND,Office,,
677743,"1 JELEBU ROAD, SINGAPORE 677743",BUKIT PANJANG PLAZA,Retail,,
819664,"75 AIRPORT BOULEVARD, SINGAPORE 819664",CROWNE PLAZA CHANGI AIRPORT,Hotel,,
119958,"438 ALEXANDRA ROAD, SINGAPORE 119958",ALEXANDRA POINT,Office,,
308899,"1 GOLDHILL PLAZA, SINGAPORE 308899",GOLDHILL PLAZA,Mixed Development,,
648886,"1 JURONG WEST CENTRAL 2, SINGAPORE 648886",JURONG POINT,Retail,,
238909,"1 NANSON ROAD, SINGAPORE 238909",INTERCONTINENTAL SINGAPORE ROBERTSON QUAY,Hotel,,
68900,"108 ROBINSON ROAD, SINGAPORE 068900",,Office,,
238823,"ORCHARD ROAD, SINGAPORE 238823",ISTANA,Office,,
229616,"11 CAVENAGH ROAD, SINGAPORE 229616",HOLIDAY INN SINGAPORE ORCHARD CITY CENTRE,Hotel,,
257854,"60 STEVENS ROAD, SINGAPORE 257854",METRO-Y STEVENS,Hotel,,
68893,"61 ROBINSON ROAD, SINGAPORE 068893",ROBINSON CENTRE,Office,,
218184,"569 SERANGOON ROAD, SINGAPORE 218184",K SPACE INN 569,Hotel,,
257878,"28 STEVENS ROAD, SINGAPORE 257878",,Hotel,,
159049,"400 LENGKOK BAHRU, SINGAPORE 159049",LENG KEE COMMUNITY CENTRE,Office,,
248371,"491 RIVER VALLEY ROAD, SINGAPORE 248371",VALLEY POINT,Office,,
58281,"20 MERCHANT ROAD, SINGAPORE 058281",SWISSOTEL MERCHANT COURT SINGAPORE,Hotel,,
486038,"5 CHANGI BUSINESS PARK CENTRAL 1, SINGAPORE 486038",CHANGI CITY POINT,Retail,,
730900,"900 SOUTH WOODLANDS DRIVE, SINGAPORE 730900",WOODLANDS CIVIC CENTRE,Office,,
238910,"3 NANSON ROAD, SINGAPORE 238910",STUDIO M HOTEL,Hotel,,
99951,"10 ARTILLERY AVENUE, SINGAPORE 099951",,Hotel,,
18935,"5 STRAITS VIEW, SINGAPORE 018935",THE HEART,Office,,
119595,"31 HENG MUI KENG TERRACE, SINGAPORE 119595",,Office,,
248163,"1 SHERWOOD ROAD, SINGAPORE 248163",MINISTRY OF FOREIGN AFFAIRS BUILDING,Office,,
228213,"14 SCOTTS ROAD, SINGAPORE 228213",FAR EAST PLAZA,Retail,,
98374,"21 OCEAN WAY, SINGAPORE 098374",W SINGAPORE SENTOSA COVE HOTEL,Hotel,,
238896,"181 ORCHARD ROAD, SINGAPORE 238896",ORCHARD CENTRAL,Retail,,
218227,"2 SERANGOON ROAD, SINGAPORE 218227",TEKKA PLACE,Mixed Development,,
239732,"31 EXETER ROAD, SINGAPORE 239732",COMCENTRE,Office,,
48658,"20 PICKERING STREET, SINGAPORE 048658",PICKERING OPERATION CENTRE,Office,,
529536,"10 TAMPINES CENTRAL 1, SINGAPORE 529536",TAMPINES ONE,Retail,,
529509,"2 TAMPINES CENTRAL 5, SINGAPORE 529509",CENTURY SQUARE,Retail,,
538766,"90 HOUGANG AVENUE 10, SINGAPORE 538766",HOUGANG MALL,Retail,,
69547,"182 CECIL STREET, SINGAPORE 069547",FRASERS TOWER,Office,,
228220,"25 SCOTTS ROAD, SINGAPORE 228220",SCOTTSWALK,Mixed Development,,
78862,"1 GOPENG STREET, SINGAPORE 078862",CARLTON CITY SINGAPORE,Hotel,,
259708,"271 BUKIT TIMAH ROAD, SINGAPORE 259708",BALMORAL PLAZA,Retail,,
168937,"3 SECOND HOSPITAL AVENUE, SINGAPORE 168937",HEALTH PROMOTION BOARD,Office,,
609517,"21 JURONG EAST STREET 31, SINGAPORE 609517",,Office,,
49910,"9 BATTERY ROAD, SINGAPORE 049910",MYP CENTRE,Office,,
138637,"31 ROCHESTER DRIVE, SINGAPORE 138637",PARK ROCHESTER AVENUE,Hotel,,
609079,"10 SCIENCE CENTRE ROAD, SINGAPORE 609079",,Office,,
189630,"51 BENCOOLEN STREET, SINGAPORE 189630",BENCOOLEN RESIDENCES,Hotel,,
89109,"1 KEONG SAIK ROAD, SINGAPORE 089109",,Office,,
528729,"11 TAMPINES CONCOURSE, SINGAPORE 528729",,Office,,
247933,"163 TANGLIN ROAD, SINGAPORE 247933",TANGLIN MALL,Retail,,
59765,"20 HAVELOCK ROAD, SINGAPORE 059765",CENTRAL SQUARE,Hotel,,
238889,"60 ORCHARD ROAD, SINGAPORE 238889",THE ATRIUM @ ORCHARD,Mixed Development,,
238839,"68 ORCHARD ROAD, SINGAPORE 238839",PLAZA SINGAPURA,Retail,,
247911,"29 TANGLIN ROAD, SINGAPORE 247911",ST. REGIS HOTEL SINGAPORE,Hotel,,
307964,"36 NEWTON ROAD, SINGAPORE 307964",HOTEL ROYAL,Hotel,,
187996,"30 VICTORIA STREET, SINGAPORE 187996",CHIJMES,Retail,,
199588,"5001 BEACH ROAD, SINGAPORE 199588",GOLDEN MILE COMPLEX,Retail,,
138649,"10 CENTRAL EXCHANGE GREEN, SINGAPORE 138649",PIXEL,Office,,
139964,"20 AYER RAJAH CRESCENT, SINGAPORE 139964",,Office,,
529653,"300 TAMPINES AVENUE 5, SINGAPORE 529653",INCOME AT TAMPINES JUNCTION,Office,,
248646,"190 ORCHARD BOULEVARD, SINGAPORE 248646",FOUR SEASONS HOTEL,Hotel,,
179934,"36 ARMENIAN STREET, SINGAPORE 179934",,Office,,
229835,"99 BUKIT TIMAH ROAD, SINGAPORE 229835",ALFA CENTRE,Office,,
69536,"135 CECIL STREET, SINGAPORE 069536",PHILIPPINE AIRLINES BUILDING,Office,,
179803,"1 COLEMAN STREET, SINGAPORE 179803",THE ADELPHI,Mixed Development,,
228218,"15 SCOTTS ROAD, SINGAPORE 228218",THONG TECK BUILDING,Office,,
48946,"138 MARKET STREET, SINGAPORE 048946",CAPITAGREEN,Office,,
238259,"90 ROBERTSON QUAY, SINGAPORE 238259",UP@ROBERTSON QUAY,Hotel,,
178880,"1 PARLIAMENT PLACE, SINGAPORE 178880",PARLIAMENT HOUSE COMPLEX,Office,,
419715,"80 CHANGI ROAD, SINGAPORE 419715",CENTROPOD @ CHANGI,Office,,
680309,"309 CHOA CHU KANG AVENUE 4, SINGAPORE 680309",CHOA CHU KANG CENTRE,Office,,
368125,"401 MACPHERSON ROAD, SINGAPORE 368125",MACPHERSON MALL,Mixed Development,,
437157,"11 TANJONG KATONG ROAD, SINGAPORE 437157",KINEX,Retail,,
238858,"277 ORCHARD ROAD, SINGAPORE 238858",ORCHARD GATEWAY,Mixed Development,,
179097,"109 NORTH BRIDGE ROAD, SINGAPORE 179097",FUNAN,Mixed Development,,
400845,"845 GEYLANG ROAD, SINGAPORE 400845",TANJONG KATONG COMPLEX,Retail,,
608526,"2 VENTURE DRIVE, SINGAPORE 608526",VISION EXCHANGE,Office,,
199018,"200 JALAN SULTAN, SINGAPORE 199018",TEXTILE CENTRE,Retail,,
